MPCORB extract of the first 5000 numbered asteroids.
For use with Cartes du Ciel / Skychart software. 
 
MINOR PLANET CENTER ORBIT DATABASE (MPCORB)   File prepared 2012 Mar. 3

This file contains published orbital elements for all numbered and unnumbered
multi-opposition minor planets for which it is possible to make reasonable
predictions.  It also includes published elements for recent one-opposition
minor planets and is intended to be complete through the last issued Daily
Orbit Update MPEC.  As such it is intended to be of interest primarily
to astrometric observers.

   Software programs may include this datafile amongst their datasets, as
   long as this header is included (it is acceptable if it is contained
   in a file separate from the actual data) and that proper attribution
   to the Minor Planet Center is given.  Credit to the individual orbit
   computers is implicit by the inclusion of a reference and the name of
   the orbit computer on each orbit record.  Information on how to obtain
   updated copies of the datafile must also be included.

   The work of the individual astrometric observers, without whom none of
   the work of the Minor Planet Center would be possible, is gratefully
   acknowledged.  Credit to the individual observers is implicit by the
   inclusion of the reference to the publication of their observations in
   all data sets distributed by the Minor Planet Center.

New versions of this file, updated on a daily basis, will be available at:

          http://www.minorplanetcenter.org/iau/MPCORB/MPCORB.DAT

The elements contained within MPCORB are divided into three sections,
separated by blank lines.  The first section contains the numbered objects,
the second section contains the unnumbered objects with perturbed orbit
solutions and the third contains the recent 1-opposition objects with
unperturbed orbit solutions.  Each object's elements are stored on a single
line, the format of which is described at:

          http://www.minorplanetcenter.org/iau/info/MPOrbitFormat.html

A brief header is given below:

Des'n     H     G   Epoch     M        Peri.      Node       Incl.       e            n           a        Reference #Obs #Opp    Arc    rms  Perts   Computer

----------------------------------------------------------------------------------------------------------------------------------------------------------------
00001    3.34  0.12 K123E 242.44438   72.14554   80.35052   10.58785  0.0777898  0.21392550   2.7688176  0 MPO216418  6332  99 1802-2011 0.60 M-v 30h MPCLINUX   0000      (1) Ceres              20111215
00002    4.13  0.11 K123E 224.47817  310.03850  173.12520   34.84268  0.2313469  0.21367050   2.7710201  0 MPO219503  7566  96 1827-2011 0.59 M-v 28h MPCLINUX   0000      (2) Pallas             20111123
00003    5.33  0.32 K123E 167.42159  248.22602  169.90317   12.97943  0.2552218  0.22575220   2.6712512  0 MPO219503  6519  97 1824-2012 0.60 M-v 38h MPCLINUX   0000      (3) Juno               20120113
00004    3.20  0.32 K123E 110.53170  150.08873  103.89537    7.13426  0.0882196  0.27152443   2.3619105  0 MPO216418  6605  88 1827-2011 0.60 M-p 18h MPCLINUX   0000      (4) Vesta              20110727
00005    6.85  0.15 K123E  21.74034  358.80654  141.60955    5.36719  0.1905003  0.23862659   2.5742862  0 MPO219503  1921  71 1845-2012 0.60 M-v 38h MPCLINUX   0000      (5) Astraea            20120203
00006    5.71  0.24 K123E 128.40079  239.33102  138.72579   14.74869  0.2021124  0.26097845   2.4251184  0 MPO216418  5236  84 1848-2011 0.55 M-v 38h MPCLINUX   0007      (6) Hebe               20111129
00007    5.51  0.15 K123E 164.94757  145.31524  259.64046    5.52358  0.2304982  0.26732729   2.3865682  0 MPO219503  4711  78 1848-2011 0.59 M-v 38h MPCLINUX   0000      (7) Iris               20110513
00008    6.49  0.28 K123E 130.35494  285.25189  110.93171    5.88750  0.1563830  0.30174433   2.2014558  0 MPO216418  2026  80 1847-2011 0.68 M-v 38h MPCLINUX   0000      (8) Flora              20111230
00009    6.28  0.17 K123E 302.03019    6.16241   68.94772    5.57549  0.1228462  0.26742483   2.3859879  0 MPO216418  2202  71 1849-2011 0.63 M-v 38h MPCLINUX   0000      (9) Metis              20111026
00010    5.43  0.15 K123E  50.83720  312.92153  283.41394    3.84159  0.1162722  0.17730045   3.1380714  0 MPC 35055  2261 104 1849-1999 0.53 M-v 38h Goffin     0000     (10) Hygiea             19990306
00011    6.55  0.15 K123E 332.28621  195.12100  125.59676    4.62597  0.0988868  0.25659503   2.4526593  0 MPO213833  4322  85 1850-2011 0.61 M-v 38h MPCLINUX   0000     (11) Parthenope         20110625
00012    7.24  0.22 K123E 134.43513   69.70160  235.49007    8.36923  0.2210903  0.27648696   2.3335634  0 E2012-E20  2079  71 1850-2012 0.67 M-v 38h MPCLINUX   0000     (12) Victoria           20120223
00013    6.74  0.15 K123E 288.86212   79.74785   43.26903   16.54551  0.0848434  0.23809021   2.5781510  0 MPO219503  1529  61 1850-2012 0.65 M-v 38h MPCLINUX   0000     (13) Egeria             20120104
00014    6.30  0.15 K123E 268.88230   97.74444   86.16449    9.11723  0.1656877  0.23682109   2.5873537  0 E2012-E20  1946  68 1851-2012 0.66 M-v 38h MPCLINUX   0000     (14) Irene              20120225
00015    5.28  0.23 K123E  48.09277   97.59162  293.19807   11.73852  0.1883149  0.22940043   2.6428544  0 MPO216418  1903  73 1851-2011 0.58 M-v 38h MPCLINUX   0000     (15) Eunomia            20111129
00016    5.90  0.20 K123E 137.49956  227.04681  150.29921    3.09902  0.1372278  0.19737602   2.9215039  0 MPO216418  2340  78 1852-2011 0.59 M-v 38h MPCLINUX   0000     (16) Psyche             20111129
00017    7.76  0.15 K123E   4.30551  135.50409  125.59141    5.58816  0.1342074  0.25385694   2.4702640  0 MPO213833  2131  82 1853-2011 0.64 M-v 38h MPCLINUX   0000     (17) Thetis             20110619
00018    6.51  0.25 K123E 250.40827  227.95195  150.50098   10.12696  0.2181288  0.28329367   2.2960330  0 MPO216418  4187  67 1856-2011 0.56 M-v 38h MPCLINUX   0000     (18) Melpomene          20110702
00019    7.13  0.10 K123E 245.49551  182.29749  211.23385    1.57339  0.1578252  0.25820416   2.4424587  0 MPO210328  2011  82 1852-2011 0.62 M-v 38h MPCLINUX   0000     (19) Fortuna            20110627
00020    6.50  0.25 K123E 152.24822  256.74482  206.18808    0.70817  0.1422669  0.26355474   2.4092886  0 MPO216418  1719  75 1856-2011 0.60 M-v 38h MPCLINUX   0000     (20) Massalia           20110605
00021    7.35  0.11 K123E  29.48095  250.36793   80.89426    3.06405  0.1629385  0.25931704   2.4354656  0 MPO213833  3539  66 1866-2011 0.40 M-v 38h MPCLINUX   0000     (21) Lutetia            20111126
00022    6.45  0.21 K123E  42.03315  354.60737   66.08247   13.71883  0.1004953  0.19867749   2.9087313  0 E2012-E20  1949  71 1854-2012 0.52 M-v 38h MPCLINUX   0000     (22) Kalliope           20120218
00023    6.95  0.15 K123E  93.22590   60.75675   66.89325   10.11477  0.2347331  0.23157413   2.6262901  0 MPO210328  1418  56 1866-2011 0.51 M-v 38h MPCLINUX   0000     (23) Thalia             20110430
00024    7.08  0.19 K123E 253.95303  106.97996   36.12293    0.75754  0.1289328  0.17746333   3.1361510  0 MPO219503  1882  73 1853-2012 0.61 M-v 38h MPCLINUX   0000     (24) Themis             20120103
00025    7.83  0.15 K123E 203.74542   90.14431  214.22897   21.59382  0.2559637  0.26525114   2.3990053  0 E2012-E20  2019  64 1860-2012 0.61 M-v 38h MPCLINUX   0007     (25) Phocaea            20120205
00026    7.4   0.15 K123E 232.23103  194.49330   45.79729    3.56418  0.0897160  0.22792032   2.6542837  0 E2012-E20  1175  65 1861-2012 0.57 M-v 38h MPCLINUX   0000     (26) Proserpina         20120224
00027    7.0   0.15 K123E 342.59699  356.38601   94.79869    1.58379  0.1727697  0.27409982   2.3470926  0 E2012-E20  1878  65 1853-2012 0.60 M-v 38h MPCLINUX   0000     (27) Euterpe            20120211
00028    7.09  0.15 K123E  78.98248  344.46144  144.33820    9.42987  0.1507603  0.21297793   2.7770241  0 MPO219503  1675  85 1863-2012 0.59 M-v 38h MPCLINUX   0000     (28) Bellona            20120201
00029    5.85  0.20 K123E  18.15479   61.87511  356.45149    6.09023  0.0729798  0.24133713   2.5549748  0 E2012-E20  1685  84 1855-2012 0.64 M-v 38h MPCLINUX   0000     (29) Amphitrite         20120222
00030    7.57  0.15 K123E  45.35293   86.72223  307.65313    2.09793  0.1274493  0.27093523   2.3653336  0 E2012-E20  1513  67 1860-2012 0.59 M-v 38h MPCLINUX   0000     (30) Urania             20120224
00031    6.74  0.15 K123E 350.11713   61.23866   31.15567   26.31822  0.2227184  0.17590644   3.1546286  0 MPO219503  1185  51 1860-2012 0.58 M-v 38h MPCLINUX   0000     (31) Euphrosyne         20120204
00032    7.56  0.15 K123E 137.31791  338.57380  220.54237    5.52988  0.0824105  0.23697538   2.5862305  0 MPO213833  1151  63 1864-2011 0.63 M-v 38h MPCLINUX   0000     (32) Pomona             20111123
00033    8.55  0.33 K123E 175.24936  338.14805    8.59380    1.87038  0.3374924  0.20310302   2.8663230  0 E2012-E20  1251  58 1856-2012 0.65 M-v 38h MPCLINUX   0000     (33) Polyhymnia         20120301
00034    8.51  0.15 K123E 266.15143  329.66947  184.49591    5.49997  0.1053993  0.22340572   2.6899231  0 MPO219503  1594  59 1864-2012 0.54 M-v 38h MPCLINUX   0000     (34) Circe              20120121
00035    8.5   0.15 K123E  79.75064  213.71150  353.79111    7.93467  0.2272100  0.19055234   2.9908400  0 MPO216418  1419  52 1860-2011 0.57 M-v 38h MPCLINUX   0000     (35) Leukothea          20110828
00036    8.46  0.15 K123E  98.64997   46.86664  358.45357   18.43362  0.3027425  0.21633879   2.7481881  0 E2012-E20   835  39 1866-2012 0.56 M-v 38h MPCLINUX   0000     (36) Atalante           20120301
00037    7.29  0.24 K123E 105.32591   62.67694    7.33240    3.07332  0.1736741  0.22934135   2.6433082  0 MPO216418  1599  71 1855-2011 0.63 M-v 38h MPCLINUX   0000     (37) Fides              20111230
